0 FENGYUN 1C DEB
1 30309U 99025ZW  13282.45919176  .00000258  00000-0  23399-3 0   915
2 30309 099.2074 238.0655 0095139 304.7459 178.4570 13.90833257341737
0 FENGYUN 1C DEB
1 30309U 99025ZW  13283.52623788  .00000175  00000-0  16961-3 0   921
2 30309 099.2076 239.1232 0095116 301.8352 121.1768 13.90834605341885
0 FENGYUN 1C DEB
1 30309U 99025ZW  13285.82138358  .00000168  00000-0  16468-3 0   946
2 30309 099.2081 241.3982 0095050 295.5810 093.0302 13.90835693342209
0 FENGYUN 1C DEB
1 30309U 99025ZW  13286.82848208  .00000265  00000-0  23901-3 0   958
2 30309 099.2083 242.3964 0095018 292.8338 095.6088 13.90835607342340
0 FENGYUN 1C DEB
1 30309U 99025ZW  13287.84028160  .00000367  00000-0  31748-3 0   960
2 30309 099.2086 243.3992 0094994 290.0707 121.7289 13.90836070342481
0 FENGYUN 1C DEB
1 30309U 99025ZW  13289.14813212  .00000434  00000-0  36914-3 0   971
2 30309 099.2090 244.6955 0094953 286.4997 190.1890 13.90836627342660
0 FENGYUN 1C DEB
1 30309U 99025ZW  13290.15552544  .00000437  00000-0  37152-3 0   981
2 30309 099.2093 245.6941 0094930 283.7507 194.2468 13.90837299342809
0 FENGYUN 1C DEB
1 30309U 99025ZW  13291.44993714  .00000384  00000-0  33054-3 0   991
2 30309 099.2096 246.9773 0094906 280.2193 195.4166 13.90838915342988
0 FENGYUN 1C DEB
1 30309U 99025ZW  13292.45711495  .00000354  00000-0  30745-3 0  1001
2 30309 099.2097 247.9758 0094889 277.4683 198.4021 13.90840281343124
0 FENGYUN 1C DEB
1 30309U 99025ZW  13293.81186253  .00000256  00000-0  23213-3 0  1014
2 30309 099.2098 249.3189 0094867 273.7699 141.6901 13.90842268343316
0 FENGYUN 1C DEB
1 30309U 99025ZW  13294.81366155  .00000235  00000-0  21628-3 0  1022
2 30309 099.2099 250.3122 0094876 271.0316 117.7573 13.90843422343450
0 FENGYUN 1C DEB
1 30309U 99025ZW  13295.82690809  .00000257  00000-0  23260-3 0  1039
2 30309 099.2100 251.3168 0094881 268.2561 151.1560 13.90843848343595
